{
  "type": "FeatureCollection",
  "features": [
    {
      "type": "Feature",
      "properties": {
        "norad_id": 28051,
        "name": "IRS-P6 (RESOURCESAT-1)",
        "group": "resource",
        "lat": 12.064179399235229,
        "lon": 16.63881503835889,
        "alt_km": 816.5104708496501,
        "timestamp": "2025-12-03T13:52:09.221659+00:00",
        "meta_object_name": "IRS-P6 (RESOURCESAT-1)",
        "meta_object_id": "2003-046A",
        "meta_epoch": "2025-12-03T09:03:43.172064",
        "meta_mean_motion": 14.36067494,
        "meta_eccentricity": 0.00636515,
        "meta_inclination": 98.2191,
        "meta_ra_of_asc_node": 18.218,
        "meta_arg_of_pericenter": 208.8868,
        "meta_mean_anomaly": 208.2893,
        "meta_ephemeris_type": 0,
        "meta_classification_type": "U",
        "meta_norad_cat_id": 28051,
        "meta_element_set_no": 999,
        "meta_rev_at_epoch": 15242,
        "meta_bstar": 0.00012912676,
        "meta_mean_motion_dot": 3.43e-06,
        "meta_mean_motion_ddot": 0,
        "tle_line1": "1 28051U 03046A   25337.37758301  .00000343  00000+0  12913-3 0  9991",
        "tle_line2": "2 28051  98.2191  18.2180 0063651 208.8868 208.2893 14.36067494152429"
      },
      "geometry": {
        "type": "Point",
        "coordinates": [
          16.63881503835889,
          12.064179399235229
        ]
      }
    },
    {
      "type": "Feature",
      "properties": {
        "norad_id": 28220,
        "name": "SHIYAN-1 (SY-1)",
        "group": "resource",
        "lat": 77.64015501335393,
        "lon": -102.12528118680271,
        "alt_km": 475.9701626879023,
        "timestamp": "2025-12-03T13:52:09.221670+00:00",
        "meta_object_name": "SHIYAN-1 (SY-1)",
        "meta_object_id": "2004-012A",
        "meta_epoch": "2025-12-03T04:00:14.322816",
        "meta_mean_motion": 15.27750794,
        "meta_eccentricity": 0.00063394,
        "meta_inclination": 97.8957,
        "meta_ra_of_asc_node": 38.143,
        "meta_arg_of_pericenter": 0.9771,
        "meta_mean_anomaly": 359.1478,
        "meta_ephemeris_type": 0,
        "meta_classification_type": "U",
        "meta_norad_cat_id": 28220,
        "meta_element_set_no": 999,
        "meta_rev_at_epoch": 18110,
        "meta_bstar": 0.00061449667,
        "meta_mean_motion_dot": 0.00016607,
        "meta_mean_motion_ddot": 0,
        "tle_line1": "1 28220U 04012A   25337.16683244  .00016607  00000+0  61450-3 0  9993",
        "tle_line2": "2 28220  97.8957  38.1430 0006339   0.9771 359.1478 15.27750794181100"
      },
      "geometry": {
        "type": "Point",
        "coordinates": [
          -102.12528118680271,
          77.64015501335393
        ]
      }
    },
    {
      "type": "Feature",
      "properties": {
        "norad_id": 28376,
        "name": "AURA",
        "group": "resource",
        "lat": -0.2292601892588775,
        "lon": 107.72921105007087,
        "alt_km": 693.2458871422687,
        "timestamp": "2025-12-03T13:52:09.221682+00:00",
        "meta_object_name": "AURA",
        "meta_object_id": "2004-026A",
        "meta_epoch": "2025-12-03T08:06:58.085856",
        "meta_mean_motion": 14.60909844,
        "meta_eccentricity": 0.00010832,
        "meta_inclination": 98.317,
        "meta_ra_of_asc_node": 287.522,
        "meta_arg_of_pericenter": 90.9864,
        "meta_mean_anomaly": 269.146,
        "meta_ephemeris_type": 0,
        "meta_classification_type": "U",
        "meta_norad_cat_id": 28376,
        "meta_element_set_no": 999,
        "meta_rev_at_epoch": 13761,
        "meta_bstar": 0.00034859642,
        "meta_mean_motion_dot": 1.659e-05,
        "meta_mean_motion_ddot": 0,
        "tle_line1": "1 28376U 04026A   25337.33817229  .00001659  00000+0  34860-3 0  9997",
        "tle_line2": "2 28376  98.3170 287.5220 0001083  90.9864 269.1460 14.60909844137611"
      },
      "geometry": {
        "type": "Point",
        "coordinates": [
          107.72921105007087,
          -0.2292601892588775
        ]
      }
    },
    {
      "type": "Feature",
      "properties": {
        "norad_id": 28649,
        "name": "IRS-P5 (CARTOSAT-1)",
        "group": "resource",
        "lat": 35.84657722680023,
        "lon": -170.10364691326058,
        "alt_km": 594.4506284273803,
        "timestamp": "2025-12-03T13:52:09.221693+00:00",
        "meta_object_name": "IRS-P5 (CARTOSAT-1)",
        "meta_object_id": "2005-017A",
        "meta_epoch": "2025-12-03T08:23:33.623808",
        "meta_mean_motion": 14.90350785,
        "meta_eccentricity": 0.00017726,
        "meta_inclination": 97.5502,
        "meta_ra_of_asc_node": 4.1796,
        "meta_arg_of_pericenter": 53.0726,
        "meta_mean_anomaly": 307.0655,
        "meta_ephemeris_type": 0,
        "meta_classification_type": "U",
        "meta_norad_cat_id": 28649,
        "meta_element_set_no": 999,
        "meta_rev_at_epoch": 11464,
        "meta_bstar": 0.00029393388,
        "meta_mean_motion_dot": 2.807e-05,
        "meta_mean_motion_ddot": 0,
        "tle_line1": "1 28649U 05017A   25337.34969472  .00002807  00000+0  29393-3 0  9991",
        "tle_line2": "2 28649  97.5502   4.1796 0001772  53.0726 307.0655 14.90350785114640"
      },
      "geometry": {
        "type": "Point",
        "coordinates": [
          -170.10364691326058,
          35.84657722680023
        ]
      }
    },
    {
      "type": "Feature",
      "properties": {
        "norad_id": 28893,
        "name": "SINAH 1",
        "group": "resource",
        "lat": -71.15599562575294,
        "lon": 131.30230474111184,
        "alt_km": 693.3597219475369,
        "timestamp": "2025-12-03T13:52:09.221704+00:00",
        "meta_object_name": "SINAH 1",
        "meta_object_id": "2005-043D",
        "meta_epoch": "2025-12-03T07:38:29.715072",
        "meta_mean_motion": 14.63944967,
        "meta_eccentricity": 0.00148195,
        "meta_inclination": 98.2599,
        "meta_ra_of_asc_node": 105.8508,
        "meta_arg_of_pericenter": 165.3211,
        "meta_mean_anomaly": 194.8425,
        "meta_ephemeris_type": 0,
        "meta_classification_type": "U",
        "meta_norad_cat_id": 28893,
        "meta_element_set_no": 999,
        "meta_rev_at_epoch": 7186,
        "meta_bstar": 0.00016170421,
        "meta_mean_motion_dot": 7.98e-06,
        "meta_mean_motion_ddot": 0,
        "tle_line1": "1 28893U 05043D   25337.31839948  .00000798  00000+0  16170-3 0  9998",
        "tle_line2": "2 28893  98.2599 105.8508 0014819 165.3211 194.8425 14.63944967 71861"
      },
      "geometry": {
        "type": "Point",
        "coordinates": [
          131.30230474111184,
          -71.15599562575294
        ]
      }
    },
    {
      "type": "Feature",
      "properties": {
        "norad_id": 29079,
        "name": "EROS B",
        "group": "resource",
        "lat": 19.48423529556929,
        "lon": -83.64364210807433,
        "alt_km": 373.9832864172822,
        "timestamp": "2025-12-03T13:52:09.221716+00:00",
        "meta_object_name": "EROS B",
        "meta_object_id": "2006-014A",
        "meta_epoch": "2025-12-03T07:02:48.202944",
        "meta_mean_motion": 15.64596928,
        "meta_eccentricity": 0.00022592,
        "meta_inclination": 97.3488,
        "meta_ra_of_asc_node": 93.4429,
        "meta_arg_of_pericenter": 234.2551,
        "meta_mean_anomaly": 125.8498,
        "meta_ephemeris_type": 0,
        "meta_classification_type": "U",
        "meta_norad_cat_id": 29079,
        "meta_element_set_no": 999,
        "meta_rev_at_epoch": 8932,
        "meta_bstar": 0.0017048298,
        "meta_mean_motion_dot": 0.00167487,
        "meta_mean_motion_ddot": 0,
        "tle_line1": "1 29079U 06014A   25337.29361346  .00167487  00000+0  17048-2 0  9996",
        "tle_line2": "2 29079  97.3488  93.4429 0002259 234.2551 125.8498 15.64596928 89323"
      },
      "geometry": {
        "type": "Point",
        "coordinates": [
          -83.64364210807433,
          19.48423529556929
        ]
      }
    },
    {
      "type": "Feature",
      "properties": {
        "norad_id": 29228,
        "name": "RESURS-DK 1",
        "group": "resource",
        "lat": 43.546518256678276,
        "lon": 145.84441975178817,
        "alt_km": 529.9079696960043,
        "timestamp": "2025-12-03T13:52:09.221727+00:00",
        "meta_object_name": "RESURS-DK 1",
        "meta_object_id": "2006-021A",
        "meta_epoch": "2025-12-03T08:53:53.329632",
        "meta_mean_motion": 15.12073053,
        "meta_eccentricity": 0.00078268,
        "meta_inclination": 69.9327,
        "meta_ra_of_asc_node": 126.0472,
        "meta_arg_of_pericenter": 265.4771,
        "meta_mean_anomaly": 94.55,
        "meta_ephemeris_type": 0,
        "meta_classification_type": "U",
        "meta_norad_cat_id": 29228,
        "meta_element_set_no": 999,
        "meta_rev_at_epoch": 7296,
        "meta_bstar": 0.00026849527,
        "meta_mean_motion_dot": 4.527e-05,
        "meta_mean_motion_ddot": 0,
        "tle_line1": "1 29228U 06021A   25337.37075613  .00004527  00000+0  26850-3 0  9995",
        "tle_line2": "2 29228  69.9327 126.0472 0007826 265.4771  94.5500 15.12073053 72962"
      },
      "geometry": {
        "type": "Point",
        "coordinates": [
          145.84441975178817,
          43.546518256678276
        ]
      }
    }
  ]
}